[{"OBJECT_NAME":"ORBCOMM FM109","OBJECT_ID":"2014-040A","EPOCH":"2026-03-09T20:32:40.283520","MEAN_MOTION":14.58723838,"ECCENTRICITY":0.00013699,"INCLINATION":47.0026,"RA_OF_ASC_NODE":201.0749,"ARG_OF_PERICENTER":153.2814,"MEAN_ANOMALY":206.8143,"EPHEMERIS_TYPE":0,"CLASSIFICATION_TYPE":"U","NORAD_CAT_ID":40086,"ELEMENT_SET_NO":999,"REV_AT_EPOCH":61984,"BSTAR":0.00020185652,"MEAN_MOTION_DOT":7.8e-6,"MEAN_MOTION_DDOT":0},{"OBJECT_NAME":"CZ-6A DEB","OBJECT_ID":"2022-151MV","EPOCH":"2026-03-09T14:56:09.391488","MEAN_MOTION":14.38772961,"ECCENTRICITY":0.0098702,"INCLINATION":98.5838,"RA_OF_ASC_NODE":93.8507,"ARG_OF_PERICENTER":303.7137,"MEAN_ANOMALY":55.4671,"EPHEMERIS_TYPE":0,"CLASSIFICATION_TYPE":"U","NORAD_CAT_ID":54595,"ELEMENT_SET_NO":999,"REV_AT_EPOCH":17363,"BSTAR":0.00041974,"MEAN_MOTION_DOT":1.317e-5,"MEAN_MOTION_DDOT":0}]
